id,address_type,status,entity,number_street,apt_number,city,postal_code,country,notes
1,rgourdon0@seesaa.net,Active,,84 Londonderry Court,1,Reno,89510,United States,
2,lmaker1@usatoday.com,Innactive,,2 Dawn Street,,Baltimore,21290,United States,
3,dkilfether2@sakura.ne.jp,Active,,09 Starling Crossing,,New Brunswick,08922,United States,
4,abeeston3@123-reg.co.uk,Active,Building,0 Haas Circle,,Wilmington,28405,United States,"In hac habitasse platea dictumst. Etiam faucibus cursus urna. Ut tellus.

Nulla ut erat id mauris vulputate elementum. Nullam varius. Nulla facilisi."
5,gpragnell4@forbes.com,Innactive,,0342 Browning Avenue,,Senneterre,L0P,Canada,
6,mmclarty5@geocities.jp,Innactive,Building,70 Northport Alley,,Louiseville,J5V,Canada,"Proin eu mi. Nulla ac enim. In tempor, turpis nec euismod scelerisque, quam turpis adipiscing lorem, vitae mattis nibh ligula nec sem.

Duis aliquam convallis nunc. Proin at turpis a pede posuere nonummy. Integer non velit.

Donec diam neque, vestibulum eget, vulputate ut, ultrices vel, augue. Vestibulum ante ipsum primis in faucibus orci luctus et ultrices posuere cubilia Curae; Donec pharetra, magna vestibulum aliquet ultrices, erat tortor sollicitudin mi, sit amet lobortis sapien sapien non mi. Integer ac neque."
7,ewallentin6@g.co,Active,Customer,20611 Shelley Pass,,Kimberley,V1A,Canada,"Proin eu mi. Nulla ac enim. In tempor, turpis nec euismod scelerisque, quam turpis adipiscing lorem, vitae mattis nibh ligula nec sem.

Duis aliquam convallis nunc. Proin at turpis a pede posuere nonummy. Integer non velit."
8,obowser7@cdbaby.com,Innactive,,477 Fairfield Trail,8,Port-Cartier,G5B,Canada,
9,soteague8@dagondesign.com,Innactive,,510 Tennessee Junction,9,Barrhead,T7N,Canada,
10,skomorowski9@wikia.com,Active,Building,91293 Anderson Way,10,San Jose,95113,United States,"Sed sagittis. Nam congue, risus semper porta volutpat, quam pede lobortis ligula, sit amet eleifend pede libero quis orci. Nullam molestie nibh in lectus."
11,dyuryeva@fda.gov,Active,,5695 Doe Crossing Street,,Whittier,90605,United States,
12,ccrumpb@last.fm,Active,Customer,897 Anderson Court,12,Lawrenceville,30045,United States,"Proin leo odio, porttitor id, consequat in, consequat ut, nulla. Sed accumsan felis. Ut at dolor quis odio consequat varius.

Integer ac leo. Pellentesque ultrices mattis odio. Donec vitae nisi."
13,gclintc@mail.ru,Active,,38 Buena Vista Terrace,,Seattle,98175,United States,
14,davrashind@printfriendly.com,Active,,72 Rusk Way,14,Huntington,25705,United States,
15,helseye@usda.gov,Innactive,Building,131 Fremont Crossing,15,Spring,77386,United States,Suspendisse potenti. In eleifend quam a odio. In hac habitasse platea dictumst.
16,vdedhamf@gmpg.org,Innactive,Customer,20 Monica Road,,Washington,20566,United States,"In sagittis dui vel nisl. Duis ac nibh. Fusce lacus purus, aliquet at, feugiat non, pretium quis, lectus.

Suspendisse potenti. In eleifend quam a odio. In hac habitasse platea dictumst."
17,pattwoollg@example.com,Innactive,,10241 Nobel Center,,Lincoln,68510,United States,
18,cpreshawh@mozilla.com,Innactive,Customer,59 Forest Run Drive,,North York,M3H,Canada,Sed ante. Vivamus tortor. Duis mattis egestas metus.
19,lstrowgeri@epa.gov,Active,Building,4 Pepper Wood Street,,Saskatoon,S7W,Canada,"Proin leo odio, porttitor id, consequat in, consequat ut, nulla. Sed accumsan felis. Ut at dolor quis odio consequat varius."
20,sprantonij@stumbleupon.com,Innactive,Building,70 Badeau Park,,Brooklyn,11254,United States,In hac habitasse platea dictumst. Etiam faucibus cursus urna. Ut tellus.
21,kboyingtonk@webeden.co.uk,Innactive,Customer,092 Pine View Plaza,21,Oak Bay,V8S,Canada,Integer tincidunt ante vel ipsum. Praesent blandit lacinia erat. Vestibulum sed magna at nunc commodo placerat.
22,bbyfordl@ycombinator.com,Active,Building,1581 Barnett Street,22,Lakeland,33811,United States,"Curabitur in libero ut massa volutpat convallis. Morbi odio odio, elementum eu, interdum eu, tincidunt in, leo. Maecenas pulvinar lobortis est.

Phasellus sit amet erat. Nulla tempus. Vivamus in felis eu sapien cursus vestibulum.

Proin eu mi. Nulla ac enim. In tempor, turpis nec euismod scelerisque, quam turpis adipiscing lorem, vitae mattis nibh ligula nec sem."
23,ahambym@weebly.com,Innactive,Customer,22458 Summit Plaza,23,Miami,33175,United States,"Praesent blandit. Nam nulla. Integer pede justo, lacinia eget, tincidunt eget, tempus vel, pede.

Morbi porttitor lorem id ligula. Suspendisse ornare consequat lectus. In est risus, auctor sed, tristique in, tempus sit amet, sem."
24,edootsonn@google.co.uk,Innactive,Building,523 Kinsman Junction,24,Dayton,45440,United States,"Quisque porta volutpat erat. Quisque erat eros, viverra eget, congue eget, semper rutrum, nulla. Nunc purus.

Phasellus in felis. Donec semper sapien a libero. Nam dui."
25,bneweo@about.me,Innactive,Customer,3843 Washington Street,,Lafayette,70593,United States,"Fusce posuere felis sed lacus. Morbi sem mauris, laoreet ut, rhoncus aliquet, pulvinar sed, nisl. Nunc rhoncus dui vel sem.

Sed sagittis. Nam congue, risus semper porta volutpat, quam pede lobortis ligula, sit amet eleifend pede libero quis orci. Nullam molestie nibh in lectus.

Pellentesque at nulla. Suspendisse potenti. Cras in purus eu magna vulputate luctus."
26,spelferp@cbslocal.com,Active,,7872 Lerdahl Avenue,,Birmingham,35236,United States,
27,kbarenskieq@wikia.com,Innactive,Customer,1279 Holy Cross Avenue,,Oceanside,92056,United States,"Vestibulum quam sapien, varius ut, blandit non, interdum in, ante. Vestibulum ante ipsum primis in faucibus orci luctus et ultrices posuere cubilia Curae; Duis faucibus accumsan odio. Curabitur convallis."
28,somarkeyr@parallels.com,Active,,34288 Randy Junction,,Scranton,18505,United States,
29,ssilmans@weibo.com,Innactive,,71 Tomscot Terrace,,Atlanta,30358,United States,
30,scoytet@scientificamerican.com,Active,Building,53 Schurz Junction,,North Little Rock,72118,United States,"Duis aliquam convallis nunc. Proin at turpis a pede posuere nonummy. Integer non velit.

Donec diam neque, vestibulum eget, vulputate ut, ultrices vel, augue. Vestibulum ante ipsum primis in faucibus orci luctus et ultrices posuere cubilia Curae; Donec pharetra, magna vestibulum aliquet ultrices, erat tortor sollicitudin mi, sit amet lobortis sapien sapien non mi. Integer ac neque.

Duis bibendum. Morbi non quam nec dui luctus rutrum. Nulla tellus."
31,rdennisu@cnbc.com,Innactive,,7329 Boyd Park,31,Brooklyn,11210,United States,
32,tbanaszczykv@ning.com,Innactive,,8 Green Ridge Trail,32,Oromocto,E2V,Canada,
33,bkislingburyw@cocolog-nifty.com,Innactive,Customer,744 Fallview Drive,33,San Jose,95113,United States,"Cras non velit nec nisi vulputate nonummy. Maecenas tincidunt lacus at velit. Vivamus vel nulla eget eros elementum pellentesque.

Quisque porta volutpat erat. Quisque erat eros, viverra eget, congue eget, semper rutrum, nulla. Nunc purus."
34,jedlandx@flickr.com,Innactive,,5 Briar Crest Plaza,,Normandin,G0H,Canada,
35,dnovelloy@patch.com,Innactive,Building,59 Main Pass,,Cincinnati,45264,United States,"Sed ante. Vivamus tortor. Duis mattis egestas metus.

Aenean fermentum. Donec ut mauris eget massa tempor convallis. Nulla neque libero, convallis eget, eleifend luctus, ultricies eu, nibh.

Quisque id justo sit amet sapien dignissim vestibulum. Vestibulum ante ipsum primis in faucibus orci luctus et ultrices posuere cubilia Curae; Nulla dapibus dolor vel est. Donec odio justo, sollicitudin ut, suscipit a, feugiat et, eros."
36,cblunez@mtv.com,Innactive,Building,1 Spohn Point,,Rochester,14604,United States,"Lorem ipsum dolor sit amet, consectetuer adipiscing elit. Proin risus. Praesent lectus.

Vestibulum quam sapien, varius ut, blandit non, interdum in, ante. Vestibulum ante ipsum primis in faucibus orci luctus et ultrices posuere cubilia Curae; Duis faucibus accumsan odio. Curabitur convallis.

Duis consequat dui nec nisi volutpat eleifend. Donec ut dolor. Morbi vel lectus in quam fringilla rhoncus."
37,myouhill10@theguardian.com,Innactive,Customer,8 Schmedeman Lane,37,Farmington,48335,United States,"Maecenas tristique, est et tempus semper, est quam pharetra magna, ac consequat metus sapien ut nunc. Vestibulum ante ipsum primis in faucibus orci luctus et ultrices posuere cubilia Curae; Mauris viverra diam vitae quam. Suspendisse potenti."
38,tbecket11@dion.ne.jp,Active,Customer,316 Elgar Junction,,Akron,44310,United States,"Maecenas leo odio, condimentum id, luctus nec, molestie sed, justo. Pellentesque viverra pede ac diam. Cras pellentesque volutpat dui.

Maecenas tristique, est et tempus semper, est quam pharetra magna, ac consequat metus sapien ut nunc. Vestibulum ante ipsum primis in faucibus orci luctus et ultrices posuere cubilia Curae; Mauris viverra diam vitae quam. Suspendisse potenti."
39,agrzegorczyk12@comsenz.com,Innactive,,252 John Wall Avenue,,Shreveport,71161,United States,
40,lalston13@bloglines.com,Active,Customer,989 Hermina Hill,40,San Jose,95138,United States,"Phasellus sit amet erat. Nulla tempus. Vivamus in felis eu sapien cursus vestibulum.

Proin eu mi. Nulla ac enim. In tempor, turpis nec euismod scelerisque, quam turpis adipiscing lorem, vitae mattis nibh ligula nec sem."
41,wcox14@amazon.co.jp,Innactive,Customer,1389 Gerald Drive,,Nashville,37220,United States,"Cras mi pede, malesuada in, imperdiet et, commodo vulputate, justo. In blandit ultrices enim. Lorem ipsum dolor sit amet, consectetuer adipiscing elit.

Proin interdum mauris non ligula pellentesque ultrices. Phasellus id sapien in sapien iaculis congue. Vivamus metus arcu, adipiscing molestie, hendrerit at, vulputate vitae, nisl."
42,larniz15@1688.com,Innactive,,856 Hoepker Lane,,Sacramento,94207,United States,
43,vblitz16@1688.com,Active,Building,67435 Clyde Gallagher Point,,Staten Island,10305,United States,"Duis consequat dui nec nisi volutpat eleifend. Donec ut dolor. Morbi vel lectus in quam fringilla rhoncus.

Mauris enim leo, rhoncus sed, vestibulum sit amet, cursus id, turpis. Integer aliquet, massa id lobortis convallis, tortor risus dapibus augue, vel accumsan tellus nisi eu orci. Mauris lacinia sapien quis libero.

Nullam sit amet turpis elementum ligula vehicula consequat. Morbi a ipsum. Integer a nibh."
44,shuske17@paypal.com,Active,Customer,48194 Westridge Pass,,Washington,20404,United States,"Etiam vel augue. Vestibulum rutrum rutrum neque. Aenean auctor gravida sem.

Praesent id massa id nisl venenatis lacinia. Aenean sit amet justo. Morbi ut odio.

Cras mi pede, malesuada in, imperdiet et, commodo vulputate, justo. In blandit ultrices enim. Lorem ipsum dolor sit amet, consectetuer adipiscing elit."
45,frevill18@comcast.net,Innactive,Customer,58560 Holy Cross Terrace,,Vegreville,T9C,Canada,Sed ante. Vivamus tortor. Duis mattis egestas metus.
46,mtootell19@shinystat.com,Innactive,,0703 Graedel Place,46,Denton,76210,United States,
47,gpetkovic1a@vimeo.com,Active,Building,1 Tennyson Park,,Harrisburg,17126,United States,"Phasellus sit amet erat. Nulla tempus. Vivamus in felis eu sapien cursus vestibulum.

Proin eu mi. Nulla ac enim. In tempor, turpis nec euismod scelerisque, quam turpis adipiscing lorem, vitae mattis nibh ligula nec sem."
48,rguisler1b@answers.com,Active,,926 Utah Hill,48,Outlook,N3S,Canada,
49,pfolbig1c@aboutads.info,Active,,74 Eagle Crest Street,49,Cincinnati,45254,United States,
50,istreather1d@last.fm,Innactive,,0750 Golden Leaf Point,50,Dallas,75323,United States,
51,hzisneros1e@pen.io,Innactive,,63435 Arizona Way,,Maniwaki,J9E,Canada,
52,rhaldene1f@woothemes.com,Active,,6 Lukken Terrace,,Meadow Lake,S9X,Canada,
53,edongles1g@state.tx.us,Active,Building,7 Lien Street,,Prince Edward,E9H,Canada,"Proin eu mi. Nulla ac enim. In tempor, turpis nec euismod scelerisque, quam turpis adipiscing lorem, vitae mattis nibh ligula nec sem.

Duis aliquam convallis nunc. Proin at turpis a pede posuere nonummy. Integer non velit.

Donec diam neque, vestibulum eget, vulputate ut, ultrices vel, augue. Vestibulum ante ipsum primis in faucibus orci luctus et ultrices posuere cubilia Curae; Donec pharetra, magna vestibulum aliquet ultrices, erat tortor sollicitudin mi, sit amet lobortis sapien sapien non mi. Integer ac neque."
54,wgatherell1h@yahoo.co.jp,Active,,94546 Veith Terrace,,L'Île-Perrot,H9X,Canada,
55,cmowen1i@linkedin.com,Innactive,,26 Claremont Point,55,Marathon,P6A,Canada,
56,cgabbitis1j@privacy.gov.au,Active,Building,40952 Muir Center,,Providence,02912,United States,"Cras mi pede, malesuada in, imperdiet et, commodo vulputate, justo. In blandit ultrices enim. Lorem ipsum dolor sit amet, consectetuer adipiscing elit."
57,olaborda1k@cbc.ca,Innactive,,47868 Anthes Circle,,Anmore,V5A,Canada,
58,sgetley1l@ed.gov,Active,Building,36 Surrey Court,,Ottawa,J8Y,Canada,"Duis consequat dui nec nisi volutpat eleifend. Donec ut dolor. Morbi vel lectus in quam fringilla rhoncus.

Mauris enim leo, rhoncus sed, vestibulum sit amet, cursus id, turpis. Integer aliquet, massa id lobortis convallis, tortor risus dapibus augue, vel accumsan tellus nisi eu orci. Mauris lacinia sapien quis libero."
59,sflorio1m@pinterest.com,Active,,065 Mcguire Street,59,Pembroke,K8B,Canada,
60,dtitman1n@hibu.com,Active,Customer,28 Toban Crossing,60,Evansville,47747,United States,"Phasellus in felis. Donec semper sapien a libero. Nam dui.

Proin leo odio, porttitor id, consequat in, consequat ut, nulla. Sed accumsan felis. Ut at dolor quis odio consequat varius.

Integer ac leo. Pellentesque ultrices mattis odio. Donec vitae nisi."
61,rhuddleston1o@go.com,Innactive,,01171 Dryden Center,,Philadelphia,19172,United States,
62,mgarnam1p@nifty.com,Active,,60 Magdeline Pass,,Willowdale,M3H,Canada,
63,pbabar1q@shareasale.com,Active,Customer,037 Buell Road,,Beaverlodge,G8A,Canada,"Quisque id justo sit amet sapien dignissim vestibulum. Vestibulum ante ipsum primis in faucibus orci luctus et ultrices posuere cubilia Curae; Nulla dapibus dolor vel est. Donec odio justo, sollicitudin ut, suscipit a, feugiat et, eros."
64,lholliar1r@nydailynews.com,Active,,12 Fallview Park,,Saint John,E2L,Canada,
65,kchastand1s@vk.com,Innactive,Customer,6306 8th Place,,Coaticook,J1A,Canada,"Integer tincidunt ante vel ipsum. Praesent blandit lacinia erat. Vestibulum sed magna at nunc commodo placerat.

Praesent blandit. Nam nulla. Integer pede justo, lacinia eget, tincidunt eget, tempus vel, pede.

Morbi porttitor lorem id ligula. Suspendisse ornare consequat lectus. In est risus, auctor sed, tristique in, tempus sit amet, sem."
66,gbison1t@arstechnica.com,Innactive,Customer,76987 Schlimgen Street,,Neuville,T9M,Canada,"Duis bibendum. Morbi non quam nec dui luctus rutrum. Nulla tellus.

In sagittis dui vel nisl. Duis ac nibh. Fusce lacus purus, aliquet at, feugiat non, pretium quis, lectus."
67,lcossom1u@vk.com,Active,Customer,7965 Dwight Drive,67,Burns Lake,M4H,Canada,"Duis bibendum. Morbi non quam nec dui luctus rutrum. Nulla tellus.

In sagittis dui vel nisl. Duis ac nibh. Fusce lacus purus, aliquet at, feugiat non, pretium quis, lectus.

Suspendisse potenti. In eleifend quam a odio. In hac habitasse platea dictumst."
68,agoude1v@china.com.cn,Innactive,,13 Ridgeview Park,,Dallas,75387,United States,
69,hwaye1w@ibm.com,Innactive,Customer,76 Milwaukee Alley,,Birmingham,35236,United States,Praesent id massa id nisl venenatis lacinia. Aenean sit amet justo. Morbi ut odio.
70,jorsi1x@umn.edu,Active,Building,36644 Shelley Junction,,Boise,83732,United States,"In hac habitasse platea dictumst. Etiam faucibus cursus urna. Ut tellus.

Nulla ut erat id mauris vulputate elementum. Nullam varius. Nulla facilisi."
71,gcrimpe1y@csmonitor.com,Active,Customer,64 Maple Hill,71,Sioux Falls,57105,United States,"Morbi non lectus. Aliquam sit amet diam in magna bibendum imperdiet. Nullam orci pede, venenatis non, sodales sed, tincidunt eu, felis.

Fusce posuere felis sed lacus. Morbi sem mauris, laoreet ut, rhoncus aliquet, pulvinar sed, nisl. Nunc rhoncus dui vel sem.

Sed sagittis. Nam congue, risus semper porta volutpat, quam pede lobortis ligula, sit amet eleifend pede libero quis orci. Nullam molestie nibh in lectus."
72,mnewman1z@techcrunch.com,Active,Building,7539 High Crossing Avenue,,Champaign,61825,United States,Cras non velit nec nisi vulputate nonummy. Maecenas tincidunt lacus at velit. Vivamus vel nulla eget eros elementum pellentesque.
73,jloukes20@archive.org,Active,,196 Nobel Park,,West Palm Beach,33416,United States,
74,nberesfore21@bigcartel.com,Innactive,Building,5 Stoughton Place,74,Milwaukee,53285,United States,"Donec diam neque, vestibulum eget, vulputate ut, ultrices vel, augue. Vestibulum ante ipsum primis in faucibus orci luctus et ultrices posuere cubilia Curae; Donec pharetra, magna vestibulum aliquet ultrices, erat tortor sollicitudin mi, sit amet lobortis sapien sapien non mi. Integer ac neque."
75,parthy22@ifeng.com,Innactive,Building,7286 Donald Hill,,Saint Petersburg,33715,United States,"In quis justo. Maecenas rhoncus aliquam lacus. Morbi quis tortor id nulla ultrices aliquet.

Maecenas leo odio, condimentum id, luctus nec, molestie sed, justo. Pellentesque viverra pede ac diam. Cras pellentesque volutpat dui."
76,nsaterthwait23@discuz.net,Active,,9 Farmco Center,,Bells Corners,K2R,Canada,
77,gbower24@samsung.com,Innactive,,952 Kensington Circle,77,Flushing,11388,United States,
78,dcaunter25@sourceforge.net,Innactive,,010 Ilene Point,,Neepawa,H3Z,Canada,
79,ijeanequin26@netvibes.com,Innactive,Customer,979 Vera Lane,,Dauphin,R7N,Canada,"Maecenas tristique, est et tempus semper, est quam pharetra magna, ac consequat metus sapien ut nunc. Vestibulum ante ipsum primis in faucibus orci luctus et ultrices posuere cubilia Curae; Mauris viverra diam vitae quam. Suspendisse potenti."
80,sbispo27@canalblog.com,Active,Customer,57 Calypso Pass,,Orange,92668,United States,"In hac habitasse platea dictumst. Etiam faucibus cursus urna. Ut tellus.

Nulla ut erat id mauris vulputate elementum. Nullam varius. Nulla facilisi.

Cras non velit nec nisi vulputate nonummy. Maecenas tincidunt lacus at velit. Vivamus vel nulla eget eros elementum pellentesque."
81,mdescroix28@dailymail.co.uk,Innactive,Customer,1 Village Green Alley,,Sainte-Thérèse,J7G,Canada,"Vestibulum ac est lacinia nisi venenatis tristique. Fusce congue, diam id ornare imperdiet, sapien urna pretium nisl, ut volutpat sapien arcu sed augue. Aliquam erat volutpat."
82,nconstantine29@marriott.com,Active,,23837 Thackeray Terrace,,Fort Smith,72905,United States,
83,dwildash2a@moonfruit.com,Active,Customer,92984 American Crossing,,Mobile,36670,United States,Suspendisse potenti. In eleifend quam a odio. In hac habitasse platea dictumst.
84,swelburn2b@berkeley.edu,Active,Building,98 Golden Leaf Way,,Midland,79705,United States,"In hac habitasse platea dictumst. Etiam faucibus cursus urna. Ut tellus.

Nulla ut erat id mauris vulputate elementum. Nullam varius. Nulla facilisi."
85,ssussex2c@deviantart.com,Innactive,Building,84 Paget Center,,Innisfil,L9S,Canada,"Vestibulum ac est lacinia nisi venenatis tristique. Fusce congue, diam id ornare imperdiet, sapien urna pretium nisl, ut volutpat sapien arcu sed augue. Aliquam erat volutpat.

In congue. Etiam justo. Etiam pretium iaculis justo."
86,zhowroyd2d@discovery.com,Active,,69305 Maple Wood Crossing,,Boise,83727,United States,
87,lkillimister2e@xinhuanet.com,Innactive,,9 Rigney Way,87,Angus,J8Y,Canada,
88,zgerssam2f@rakuten.co.jp,Innactive,Customer,6 Fisk Lane,,Middleton,K9V,Canada,"Morbi non lectus. Aliquam sit amet diam in magna bibendum imperdiet. Nullam orci pede, venenatis non, sodales sed, tincidunt eu, felis.

Fusce posuere felis sed lacus. Morbi sem mauris, laoreet ut, rhoncus aliquet, pulvinar sed, nisl. Nunc rhoncus dui vel sem."
89,jmichieli2g@dot.gov,Active,Customer,2 Artisan Alley,,Louisville,40287,United States,"Mauris enim leo, rhoncus sed, vestibulum sit amet, cursus id, turpis. Integer aliquet, massa id lobortis convallis, tortor risus dapibus augue, vel accumsan tellus nisi eu orci. Mauris lacinia sapien quis libero."
90,mmoulson2h@paginegialle.it,Active,Customer,8333 Upham Plaza,,El Paso,79940,United States,"Vestibulum ac est lacinia nisi venenatis tristique. Fusce congue, diam id ornare imperdiet, sapien urna pretium nisl, ut volutpat sapien arcu sed augue. Aliquam erat volutpat.

In congue. Etiam justo. Etiam pretium iaculis justo."
91,mdrayson2i@qq.com,Active,Customer,18 Summer Ridge Center,,Meadow Lake,S9X,Canada,"Praesent id massa id nisl venenatis lacinia. Aenean sit amet justo. Morbi ut odio.

Cras mi pede, malesuada in, imperdiet et, commodo vulputate, justo. In blandit ultrices enim. Lorem ipsum dolor sit amet, consectetuer adipiscing elit."
92,emaclice2j@psu.edu,Active,Customer,47 Michigan Alley,,Baton Rouge,70836,United States,Aenean lectus. Pellentesque eget nunc. Donec quis orci eget orci vehicula condimentum.
93,pklesl2k@bluehost.com,Innactive,Building,6420 Buena Vista Place,,Oklahoma City,73190,United States,"Morbi porttitor lorem id ligula. Suspendisse ornare consequat lectus. In est risus, auctor sed, tristique in, tempus sit amet, sem.

Fusce consequat. Nulla nisl. Nunc nisl."
94,erecords2l@princeton.edu,Innactive,,0 Cascade Park,,Camlachie,G5Z,Canada,
95,jseathwright2m@cbc.ca,Active,,4188 Vermont Center,,Atlanta,30328,United States,
96,ssertin2n@google.es,Active,,62276 Butternut Lane,,Atlanta,31106,United States,
97,gbrettoner2o@wix.com,Innactive,,1 Aberg Park,97,Saint Paul,55188,United States,
98,mkibbee2p@vistaprint.com,Innactive,Customer,5 Iowa Lane,,Knoxville,37939,United States,"Donec diam neque, vestibulum eget, vulputate ut, ultrices vel, augue. Vestibulum ante ipsum primis in faucibus orci luctus et ultrices posuere cubilia Curae; Donec pharetra, magna vestibulum aliquet ultrices, erat tortor sollicitudin mi, sit amet lobortis sapien sapien non mi. Integer ac neque.

Duis bibendum. Morbi non quam nec dui luctus rutrum. Nulla tellus.

In sagittis dui vel nisl. Duis ac nibh. Fusce lacus purus, aliquet at, feugiat non, pretium quis, lectus."
99,kferrarello2q@about.com,Active,,9357 Gale Trail,,Princeville,J1J,Canada,
100,mpendry2r@jimdo.com,Active,Customer,759 Anzinger Place,,Boston,02283,United States,"Curabitur gravida nisi at nibh. In hac habitasse platea dictumst. Aliquam augue quam, sollicitudin vitae, consectetuer eget, rutrum at, lorem.

Integer tincidunt ante vel ipsum. Praesent blandit lacinia erat. Vestibulum sed magna at nunc commodo placerat.

Praesent blandit. Nam nulla. Integer pede justo, lacinia eget, tincidunt eget, tempus vel, pede."
101,ffalvey2s@fotki.com,Active,,0310 Magdeline Way,,El Paso,88525,United States,
102,nbolter2t@abc.net.au,Innactive,,1 Twin Pines Pass,,Washington,20420,United States,
103,coscollee2u@qq.com,Active,,37 Clyde Gallagher Street,103,Chicago,60652,United States,
104,aoscroft2v@infoseek.co.jp,Innactive,,9839 Milwaukee Crossing,104,Paterson,07505,United States,
105,jdaenen2w@delicious.com,Active,Customer,30393 Duke Place,,Château-Richer,B3H,Canada,"Cum sociis natoque penatibus et magnis dis parturient montes, nascetur ridiculus mus. Vivamus vestibulum sagittis sapien. Cum sociis natoque penatibus et magnis dis parturient montes, nascetur ridiculus mus."
106,bgrunder2x@wikispaces.com,Active,Building,683 Welch Court,,Grande Cache,N2Z,Canada,"Nam ultrices, libero non mattis pulvinar, nulla pede ullamcorper augue, a suscipit nulla elit ac nulla. Sed vel enim sit amet nunc viverra dapibus. Nulla suscipit ligula in lacus.

Curabitur at ipsum ac tellus semper interdum. Mauris ullamcorper purus sit amet nulla. Quisque arcu libero, rutrum ac, lobortis vel, dapibus at, diam."
107,mcasale2y@opensource.org,Active,,1746 Oak Valley Park,,Paterson,07505,United States,
108,fliddicoat2z@histats.com,Innactive,,49800 Lunder Avenue,108,Tacoma,98442,United States,
109,adaniels30@ask.com,Active,Customer,6574 Fallview Lane,,Boston,02114,United States,Nulla ut erat id mauris vulputate elementum. Nullam varius. Nulla facilisi.
110,afinan31@google.co.uk,Active,,34 Daystar Avenue,,Carman,A8A,Canada,
111,nfennelly32@auda.org.au,Active,,127 Mosinee Street,,Prince Rupert,V8J,Canada,
112,irollin33@prlog.org,Innactive,Building,02 Artisan Crossing,,Irving,75037,United States,"Duis aliquam convallis nunc. Proin at turpis a pede posuere nonummy. Integer non velit.

Donec diam neque, vestibulum eget, vulputate ut, ultrices vel, augue. Vestibulum ante ipsum primis in faucibus orci luctus et ultrices posuere cubilia Curae; Donec pharetra, magna vestibulum aliquet ultrices, erat tortor sollicitudin mi, sit amet lobortis sapien sapien non mi. Integer ac neque.

Duis bibendum. Morbi non quam nec dui luctus rutrum. Nulla tellus."
113,asauvan34@auda.org.au,Active,,52790 Golf View Parkway,,Flushing,11388,United States,
114,bkarlik35@nydailynews.com,Innactive,Customer,4125 Erie Terrace,114,Lacolle,E5A,Canada,Phasellus in felis. Donec semper sapien a libero. Nam dui.
115,fwick36@storify.com,Active,,732 Stone Corner Point,,Swift Current,S9H,Canada,
116,mbricham37@ft.com,Active,,57 Merchant Point,116,Birmingham,35205,United States,
117,mpoetz38@youtube.com,Innactive,Building,211 Luster Alley,,Fort Lauderdale,33330,United States,"Fusce consequat. Nulla nisl. Nunc nisl.

Duis bibendum, felis sed interdum venenatis, turpis enim blandit mi, in porttitor pede justo eu massa. Donec dapibus. Duis at velit eu est congue elementum.

In hac habitasse platea dictumst. Morbi vestibulum, velit id pretium iaculis, diam erat fermentum justo, nec condimentum neque sapien placerat ante. Nulla justo."
118,sbriffett39@lulu.com,Innactive,,922 8th Court,,New Brunswick,08922,United States,
119,kdowngate3a@squidoo.com,Active,,2 Havey Circle,,Little Current,J6A,Canada,
120,lmoulds3b@nationalgeographic.com,Innactive,,0 Armistice Place,120,Daytona Beach,32128,United States,
121,smilan3c@php.net,Active,Building,291 Canary Pass,,Fresno,93704,United States,"Aliquam quis turpis eget elit sodales scelerisque. Mauris sit amet eros. Suspendisse accumsan tortor quis turpis.

Sed ante. Vivamus tortor. Duis mattis egestas metus."
122,lmundie3d@ucsd.edu,Active,Building,60189 Lakewood Circle,,Oakland,94611,United States,"Quisque id justo sit amet sapien dignissim vestibulum. Vestibulum ante ipsum primis in faucibus orci luctus et ultrices posuere cubilia Curae; Nulla dapibus dolor vel est. Donec odio justo, sollicitudin ut, suscipit a, feugiat et, eros.

Vestibulum ac est lacinia nisi venenatis tristique. Fusce congue, diam id ornare imperdiet, sapien urna pretium nisl, ut volutpat sapien arcu sed augue. Aliquam erat volutpat."
123,mbuten3e@oaic.gov.au,Innactive,Building,275 Dakota Road,123,Hearst,S4A,Canada,"Curabitur at ipsum ac tellus semper interdum. Mauris ullamcorper purus sit amet nulla. Quisque arcu libero, rutrum ac, lobortis vel, dapibus at, diam."
124,etidgewell3f@smh.com.au,Innactive,,81 Roxbury Alley,,Burbank,91505,United States,
125,ccapewell3g@ftc.gov,Active,,7 Glacier Hill Parkway,,Huntsville,35815,United States,
126,wkeyme3h@mozilla.com,Innactive,Customer,662 Cordelia Crossing,,Pincher Creek,J0J,Canada,"Cras non velit nec nisi vulputate nonummy. Maecenas tincidunt lacus at velit. Vivamus vel nulla eget eros elementum pellentesque.

Quisque porta volutpat erat. Quisque erat eros, viverra eget, congue eget, semper rutrum, nulla. Nunc purus.

Phasellus in felis. Donec semper sapien a libero. Nam dui."
127,gcroyden3i@cnn.com,Innactive,Customer,4 Erie Alley,,Beaumont,77713,United States,"Vestibulum quam sapien, varius ut, blandit non, interdum in, ante. Vestibulum ante ipsum primis in faucibus orci luctus et ultrices posuere cubilia Curae; Duis faucibus accumsan odio. Curabitur convallis.

Duis consequat dui nec nisi volutpat eleifend. Donec ut dolor. Morbi vel lectus in quam fringilla rhoncus."
128,kmooreed3j@ucla.edu,Innactive,,2 Muir Center,,Philadelphia,19141,United States,
129,cmcvity3k@example.com,Active,,17779 Elgar Trail,,Dulles,20189,United States,
130,baddicote3l@ocn.ne.jp,Active,Customer,2 Sundown Street,,Fairbanks,99709,United States,Sed ante. Vivamus tortor. Duis mattis egestas metus.
131,iorta3m@delicious.com,Active,Customer,022 Logan Center,,Grand Bank,E8K,Canada,"Vestibulum quam sapien, varius ut, blandit non, interdum in, ante. Vestibulum ante ipsum primis in faucibus orci luctus et ultrices posuere cubilia Curae; Duis faucibus accumsan odio. Curabitur convallis.

Duis consequat dui nec nisi volutpat eleifend. Donec ut dolor. Morbi vel lectus in quam fringilla rhoncus.

Mauris enim leo, rhoncus sed, vestibulum sit amet, cursus id, turpis. Integer aliquet, massa id lobortis convallis, tortor risus dapibus augue, vel accumsan tellus nisi eu orci. Mauris lacinia sapien quis libero."
132,twall3n@instagram.com,Active,,398 Dwight Lane,,Richmond,23289,United States,
133,wlairdcraig3o@goodreads.com,Innactive,,72 Brown Park,,Seattle,98185,United States,
134,ckopec3p@tripod.com,Innactive,,50 Transport Hill,134,Beaumont,T4X,Canada,
135,ehyatt3q@ucoz.ru,Active,,6 Algoma Plaza,,Charleston,29424,United States,
136,sshirlaw3r@privacy.gov.au,Active,,26 7th Lane,,Okanagan,T0P,Canada,
137,swogden3s@phpbb.com,Active,Building,1 Memorial Lane,137,Ashcroft,L0R,Canada,"Sed ante. Vivamus tortor. Duis mattis egestas metus.

Aenean fermentum. Donec ut mauris eget massa tempor convallis. Nulla neque libero, convallis eget, eleifend luctus, ultricies eu, nibh."
138,umattusevich3t@shop-pro.jp,Innactive,,18888 Buena Vista Way,,Humble,77346,United States,
139,hhubbard3u@liveinternet.ru,Innactive,Customer,3973 Ridge Oak Road,,Boise,83732,United States,"Praesent blandit. Nam nulla. Integer pede justo, lacinia eget, tincidunt eget, tempus vel, pede.

Morbi porttitor lorem id ligula. Suspendisse ornare consequat lectus. In est risus, auctor sed, tristique in, tempus sit amet, sem."
140,dstonhouse3v@soup.io,Active,Customer,99 Onsgard Way,140,Charlotte,28225,United States,"Maecenas leo odio, condimentum id, luctus nec, molestie sed, justo. Pellentesque viverra pede ac diam. Cras pellentesque volutpat dui."
141,lewings3w@mozilla.org,Innactive,,0 Southridge Alley,,Blainville,J7J,Canada,
142,hfullilove3x@hud.gov,Active,Building,48 Haas Pass,,Washington,20535,United States,"In congue. Etiam justo. Etiam pretium iaculis justo.

In hac habitasse platea dictumst. Etiam faucibus cursus urna. Ut tellus."
143,arolfi3y@exblog.jp,Innactive,,9 Arrowood Plaza,143,Cincinnati,45223,United States,
144,dbrozsset3z@java.com,Innactive,,158 Eastwood Lane,144,Saint Joseph,64504,United States,
145,tchamley40@un.org,Active,,7 Bartelt Center,145,Notre-Dame-des-Prairies,K6V,Canada,
146,lewell41@xinhuanet.com,Active,Customer,34 Monica Way,146,Tucson,85732,United States,"Morbi non lectus. Aliquam sit amet diam in magna bibendum imperdiet. Nullam orci pede, venenatis non, sodales sed, tincidunt eu, felis.

Fusce posuere felis sed lacus. Morbi sem mauris, laoreet ut, rhoncus aliquet, pulvinar sed, nisl. Nunc rhoncus dui vel sem.

Sed sagittis. Nam congue, risus semper porta volutpat, quam pede lobortis ligula, sit amet eleifend pede libero quis orci. Nullam molestie nibh in lectus."
147,kdoerling42@mapy.cz,Innactive,,99738 Brown Road,,Bronx,10459,United States,
148,deversfield43@intel.com,Innactive,Building,0 Warner Center,148,Sacramento,94207,United States,"Integer ac leo. Pellentesque ultrices mattis odio. Donec vitae nisi.

Nam ultrices, libero non mattis pulvinar, nulla pede ullamcorper augue, a suscipit nulla elit ac nulla. Sed vel enim sit amet nunc viverra dapibus. Nulla suscipit ligula in lacus."
149,plockyear44@wunderground.com,Active,Customer,123 Badeau Plaza,149,Salt Lake City,84125,United States,"In hac habitasse platea dictumst. Morbi vestibulum, velit id pretium iaculis, diam erat fermentum justo, nec condimentum neque sapien placerat ante. Nulla justo.

Aliquam quis turpis eget elit sodales scelerisque. Mauris sit amet eros. Suspendisse accumsan tortor quis turpis.

Sed ante. Vivamus tortor. Duis mattis egestas metus."
150,htonbridge45@cyberchimps.com,Innactive,,151 Dryden Avenue,150,Airdrie,T4B,Canada,
151,ndmitrovic46@sogou.com,Active,Customer,92370 Becker Parkway,,Amqui,G5J,Canada,"Cras mi pede, malesuada in, imperdiet et, commodo vulputate, justo. In blandit ultrices enim. Lorem ipsum dolor sit amet, consectetuer adipiscing elit."
152,mspinella47@1688.com,Innactive,,61 Union Trail,,Thetford-Mines,G6G,Canada,
153,fjeger48@mlb.com,Active,,8 6th Circle,,Saint-Bruno-de-Guigues,G6B,Canada,
154,hbullen49@blog.com,Active,Customer,56 Kennedy Trail,,Miami,33233,United States,"Praesent blandit. Nam nulla. Integer pede justo, lacinia eget, tincidunt eget, tempus vel, pede.

Morbi porttitor lorem id ligula. Suspendisse ornare consequat lectus. In est risus, auctor sed, tristique in, tempus sit amet, sem."
155,dshard4a@jimdo.com,Active,Customer,9192 Sundown Way,,Minneapolis,55448,United States,"Praesent blandit. Nam nulla. Integer pede justo, lacinia eget, tincidunt eget, tempus vel, pede.

Morbi porttitor lorem id ligula. Suspendisse ornare consequat lectus. In est risus, auctor sed, tristique in, tempus sit amet, sem."
156,ocrossgrove4b@diigo.com,Active,,7072 Nancy Road,156,Fredericton,E3G,Canada,
157,citzkovsky4c@github.com,Innactive,Customer,3037 Stone Corner Parkway,157,Champaign,61825,United States,"Proin eu mi. Nulla ac enim. In tempor, turpis nec euismod scelerisque, quam turpis adipiscing lorem, vitae mattis nibh ligula nec sem."
158,cmazzia4d@marriott.com,Innactive,,29 Brickson Park Center,,Dallas,75265,United States,
159,ggundry4e@loc.gov,Innactive,,254 Dahle Center,159,Fort Lauderdale,33355,United States,
160,glavall4f@pagesperso-orange.fr,Active,Customer,7073 Autumn Leaf Court,160,Amarillo,79176,United States,"Quisque porta volutpat erat. Quisque erat eros, viverra eget, congue eget, semper rutrum, nulla. Nunc purus.

Phasellus in felis. Donec semper sapien a libero. Nam dui.

Proin leo odio, porttitor id, consequat in, consequat ut, nulla. Sed accumsan felis. Ut at dolor quis odio consequat varius."
161,kblase4g@google.com.hk,Active,,62852 Jenifer Plaza,161,Port Washington,11054,United States,
162,cpero4h@plala.or.jp,Innactive,,632 Riverside Place,,Louiseville,J5V,Canada,
163,tvangiffen4i@symantec.com,Active,Customer,0 Kensington Alley,,Arlington,76011,United States,Pellentesque at nulla. Suspendisse potenti. Cras in purus eu magna vulputate luctus.
164,mmartugin4j@prlog.org,Active,,05062 Delaware Crossing,164,Boca Raton,33499,United States,
165,dchatell4k@nytimes.com,Active,Building,7740 Blaine Junction,165,Washington,20210,United States,"Lorem ipsum dolor sit amet, consectetuer adipiscing elit. Proin risus. Praesent lectus."
166,mhovenden4l@yandex.ru,Active,,6326 Vahlen Court,,Cincinnati,45208,United States,
167,mdabbotdoyle4m@wikipedia.org,Innactive,,71 Farragut Plaza,,Omemee,V1E,Canada,
168,fyendall4n@diigo.com,Active,Customer,226 Golf Course Junction,,Topeka,66617,United States,"Aenean fermentum. Donec ut mauris eget massa tempor convallis. Nulla neque libero, convallis eget, eleifend luctus, ultricies eu, nibh.

Quisque id justo sit amet sapien dignissim vestibulum. Vestibulum ante ipsum primis in faucibus orci luctus et ultrices posuere cubilia Curae; Nulla dapibus dolor vel est. Donec odio justo, sollicitudin ut, suscipit a, feugiat et, eros.

Vestibulum ac est lacinia nisi venenatis tristique. Fusce congue, diam id ornare imperdiet, sapien urna pretium nisl, ut volutpat sapien arcu sed augue. Aliquam erat volutpat."
169,bgierok4o@springer.com,Innactive,,20296 Sutherland Plaza,,Berthierville,S3N,Canada,
170,hlegrand4p@cbsnews.com,Innactive,,63 Brown Crossing,,Kansas City,66160,United States,
171,gwitch4q@flavors.me,Innactive,,9 Mifflin Street,171,Seminole,34642,United States,
172,abenard4r@pen.io,Innactive,Building,0 Prentice Hill,,Pasadena,91186,United States,"Proin interdum mauris non ligula pellentesque ultrices. Phasellus id sapien in sapien iaculis congue. Vivamus metus arcu, adipiscing molestie, hendrerit at, vulputate vitae, nisl.

Aenean lectus. Pellentesque eget nunc. Donec quis orci eget orci vehicula condimentum."
173,mharm4s@craigslist.org,Innactive,,43280 David Street,,Kansas City,64125,United States,
174,gsheaf4t@mail.ru,Innactive,,3 Fallview Junction,174,Labrador City,A2V,Canada,
175,kpay4u@webs.com,Active,,15142 Jackson Plaza,,San Jose,95194,United States,
176,dcosgry4v@cdbaby.com,Innactive,,90289 Troy Alley,176,Columbia,65211,United States,
177,mbaudts4w@chron.com,Active,,37623 Carpenter Alley,,Anmore,V5A,Canada,
178,slidgerton4x@goo.ne.jp,Active,Building,5 Morrow Crossing,,Duluth,30096,United States,"Nullam porttitor lacus at turpis. Donec posuere metus vitae ipsum. Aliquam non mauris.

Morbi non lectus. Aliquam sit amet diam in magna bibendum imperdiet. Nullam orci pede, venenatis non, sodales sed, tincidunt eu, felis.

Fusce posuere felis sed lacus. Morbi sem mauris, laoreet ut, rhoncus aliquet, pulvinar sed, nisl. Nunc rhoncus dui vel sem."
179,tshemmin4y@plala.or.jp,Active,,9 Farmco Terrace,179,Greensboro,27415,United States,
180,fnowak4z@uiuc.edu,Active,Building,75834 Esch Place,180,Mountain View,94042,United States,"Maecenas tristique, est et tempus semper, est quam pharetra magna, ac consequat metus sapien ut nunc. Vestibulum ante ipsum primis in faucibus orci luctus et ultrices posuere cubilia Curae; Mauris viverra diam vitae quam. Suspendisse potenti."
181,amockford50@google.it,Active,,87 Nobel Parkway,,Miramichi,L7G,Canada,
182,wmaccahee51@g.co,Innactive,Building,268 Schlimgen Alley,,Carson City,89706,United States,Integer tincidunt ante vel ipsum. Praesent blandit lacinia erat. Vestibulum sed magna at nunc commodo placerat.
183,dheinsius52@home.pl,Innactive,,8 Moland Street,,Stockton,95210,United States,
184,hfleckness53@theguardian.com,Innactive,Customer,0 Fallview Drive,,Dulles,20189,United States,"Phasellus sit amet erat. Nulla tempus. Vivamus in felis eu sapien cursus vestibulum.

Proin eu mi. Nulla ac enim. In tempor, turpis nec euismod scelerisque, quam turpis adipiscing lorem, vitae mattis nibh ligula nec sem.

Duis aliquam convallis nunc. Proin at turpis a pede posuere nonummy. Integer non velit."
185,bcrosbie54@exblog.jp,Active,Customer,8664 Maryland Plaza,,Thessalon,P0T,Canada,"Nulla ut erat id mauris vulputate elementum. Nullam varius. Nulla facilisi.

Cras non velit nec nisi vulputate nonummy. Maecenas tincidunt lacus at velit. Vivamus vel nulla eget eros elementum pellentesque.

Quisque porta volutpat erat. Quisque erat eros, viverra eget, congue eget, semper rutrum, nulla. Nunc purus."
186,igalero55@dailymotion.com,Active,Building,47574 Truax Circle,,Selkirk,R1A,Canada,"Quisque id justo sit amet sapien dignissim vestibulum. Vestibulum ante ipsum primis in faucibus orci luctus et ultrices posuere cubilia Curae; Nulla dapibus dolor vel est. Donec odio justo, sollicitudin ut, suscipit a, feugiat et, eros.

Vestibulum ac est lacinia nisi venenatis tristique. Fusce congue, diam id ornare imperdiet, sapien urna pretium nisl, ut volutpat sapien arcu sed augue. Aliquam erat volutpat.

In congue. Etiam justo. Etiam pretium iaculis justo."
187,cwilman56@vimeo.com,Innactive,Building,22 Crownhardt Drive,187,Buffalo,14276,United States,Fusce consequat. Nulla nisl. Nunc nisl.
188,aknock57@digg.com,Active,Building,890 Lerdahl Hill,188,Columbus,43231,United States,"Aenean fermentum. Donec ut mauris eget massa tempor convallis. Nulla neque libero, convallis eget, eleifend luctus, ultricies eu, nibh."
189,kmccullagh58@cdbaby.com,Innactive,,399 Buell Street,,Knoxville,37924,United States,
190,htalks59@house.gov,Active,,06393 Quincy Hill,190,Neepawa,H3Z,Canada,
191,mfarnall5a@techcrunch.com,Innactive,Customer,753 Hazelcrest Hill,,Bowen Island,V7W,Canada,"Integer ac leo. Pellentesque ultrices mattis odio. Donec vitae nisi.

Nam ultrices, libero non mattis pulvinar, nulla pede ullamcorper augue, a suscipit nulla elit ac nulla. Sed vel enim sit amet nunc viverra dapibus. Nulla suscipit ligula in lacus."
192,igrigoroni5b@1688.com,Innactive,Customer,78 Derek Center,,Lac-Brome,L9G,Canada,"In hac habitasse platea dictumst. Etiam faucibus cursus urna. Ut tellus.

Nulla ut erat id mauris vulputate elementum. Nullam varius. Nulla facilisi.

Cras non velit nec nisi vulputate nonummy. Maecenas tincidunt lacus at velit. Vivamus vel nulla eget eros elementum pellentesque."
193,glening5c@intel.com,Active,,89 Cottonwood Pass,193,Madison,53716,United States,
194,eworthington5d@cnet.com,Innactive,Building,6594 Shoshone Pass,,Evansville,47747,United States,"Cum sociis natoque penatibus et magnis dis parturient montes, nascetur ridiculus mus. Vivamus vestibulum sagittis sapien. Cum sociis natoque penatibus et magnis dis parturient montes, nascetur ridiculus mus."
195,bdupree5e@japanpost.jp,Active,,0021 Rieder Alley,,Aurora,80045,United States,
196,lmcmurty5f@1688.com,Innactive,Customer,31913 Moland Road,,Greenville,29605,United States,"Duis bibendum. Morbi non quam nec dui luctus rutrum. Nulla tellus.

In sagittis dui vel nisl. Duis ac nibh. Fusce lacus purus, aliquet at, feugiat non, pretium quis, lectus."
197,cburbudge5g@artisteer.com,Active,Customer,01 Lerdahl Junction,197,Farnham,J2N,Canada,"Curabitur in libero ut massa volutpat convallis. Morbi odio odio, elementum eu, interdum eu, tincidunt in, leo. Maecenas pulvinar lobortis est."
198,ecottisford5h@soup.io,Active,Building,3474 Cascade Drive,,Milwaukee,53277,United States,"Sed sagittis. Nam congue, risus semper porta volutpat, quam pede lobortis ligula, sit amet eleifend pede libero quis orci. Nullam molestie nibh in lectus.

Pellentesque at nulla. Suspendisse potenti. Cras in purus eu magna vulputate luctus."
199,skirsch5i@shinystat.com,Innactive,,5 Michigan Pass,199,Brampton,L7A,Canada,
200,mclaiton5j@princeton.edu,Innactive,Customer,698 Thierer Park,,Dayton,45432,United States,"In quis justo. Maecenas rhoncus aliquam lacus. Morbi quis tortor id nulla ultrices aliquet.

Maecenas leo odio, condimentum id, luctus nec, molestie sed, justo. Pellentesque viverra pede ac diam. Cras pellentesque volutpat dui."
